{"type": "FeatureCollection", "features": [ {"type": "Feature", "properties": {"norad_id": 66584, "name": "STARLINK-35939", "group": "last-30-days", "lat": 41.44355171711855, "lon": 143.15646451579937, "alt_km": 408.1851444154181, "timestamp": "2025-12-21T03:56:49.614203+00:00", "meta": {"OBJECT_NAME": "STARLINK-35939", "OBJECT_ID": "2025-268AD", "EPOCH": "2025-12-19T14:31:27.869088", "MEAN_MOTION": 15.50751867, "ECCENTRICITY": 0.0002615, "INCLINATION": 42.9992, "RA_OF_ASC_NODE": 80.9182, "ARG_OF_PERICENTER": 187.8218, "MEAN_ANOMALY": 172.2602, "EPHEMERIS_TYPE": 0, "CLASSIFICATION_TYPE": "U", "NORAD_CAT_ID": 66584, "ELEMENT_SET_NO": 999, "REV_AT_EPOCH": 569, "BSTAR": 0.0012867, "MEAN_MOTION_DOT": 0.00076356, "MEAN_MOTION_DDOT": 0}, "tle": {"line1": "1 66584U 25268AD  25353.60518367  .00076356  00000+0  12867-2 0  9998", "line2": "2 66584  42.9992  80.9182 0002615 187.8218 172.2602 15.50751867  5698"}}, "geometry": {"type": "Point", "coordinates": [143.15646451579937, 41.44355171711855]}}, {"type": "Feature", "properties": {"norad_id": 66585, "name": "STARLINK-35963", "group": "last-30-days", "lat": 42.312810765994854, "lon": 174.07093882887338, "alt_km": 392.50683693071096, "timestamp": "2025-12-21T03:56:49.614213+00:00", "meta": {"OBJECT_NAME": "STARLINK-35963", "OBJECT_ID": "2025-268AE", "EPOCH": "2025-12-20T20:00:01.999008", "MEAN_MOTION": 15.56310562, "ECCENTRICITY": 0.0001959, "INCLINATION": 42.9999, "RA_OF_ASC_NODE": 73.6925, "ARG_OF_PERICENTER": 255.3735, "MEAN_ANOMALY": 146.3086, "EPHEMERIS_TYPE": 0, "CLASSIFICATION_TYPE": "U", "NORAD_CAT_ID": 66585, "ELEMENT_SET_NO": 999, "REV_AT_EPOCH": 596, "BSTAR": 0.0024215, "MEAN_MOTION_DOT": 0.00178633, "MEAN_MOTION_DDOT": 0}, "tle": {"line1": "1 66585U 25268AE  25354.83335647  .00178633  00000+0  24215-2 0  9994", "line2": "2 66585  42.9999  73.6925 0001959 255.3735 146.3086 15.56310562  5962"}}, "geometry": {"type": "Point", "coordinates": [174.07093882887338, 42.312810765994854]}}, {"type": "Feature", "properties": {"norad_id": 66586, "name": "TJS-21", "group": "last-30-days", "lat": -39.089436671466544, "lon": 5.6145479247047305, "alt_km": 3247.775851004154, "timestamp": "2025-12-21T03:56:49.614224+00:00", "meta": {"OBJECT_NAME": "TJS-21", "OBJECT_ID": "2025-269A", "EPOCH": "2025-12-18T16:58:10.473888", "MEAN_MOTION": 2.00580748, "ECCENTRICITY": 0.6806869, "INCLINATION": 63.2733, "RA_OF_ASC_NODE": 161.7218, "ARG_OF_PERICENTER": 269.7428, "MEAN_ANOMALY": 18.6663, "EPHEMERIS_TYPE": 0, "CLASSIFICATION_TYPE": "U", "NORAD_CAT_ID": 66586, "ELEMENT_SET_NO": 999, "REV_AT_EPOCH": 55, "BSTAR": -0.059507049, "MEAN_MOTION_DOT": 1.084e-05, "MEAN_MOTION_DDOT": 0}, "tle": {"line1": "1 66586U 25269A   25352.70706567  .00001084  00000+0 -59507-1 0  9990", "line2": "2 66586  63.2733 161.7218 6806869 269.7428  18.6663  2.00580748   558"}}, "geometry": {"type": "Point", "coordinates": [5.6145479247047305, -39.089436671466544]}}, {"type": "Feature", "properties": {"norad_id": 66587, "name": "CZ-3B R/B", "group": "last-30-days", "lat": 16.106794959944594, "lon": -179.02367657559927, "alt_km": 26671.723310919155, "timestamp": "2025-12-21T03:56:49.614237+00:00", "meta": {"OBJECT_NAME": "CZ-3B R/B", "OBJECT_ID": "2025-269B", "EPOCH": "2025-12-18T04:21:45.908640", "MEAN_MOTION": 2.0405465, "ECCENTRICITY": 0.75166459, "INCLINATION": 51.3412, "RA_OF_ASC_NODE": 168.3764, "ARG_OF_PERICENTER": 229.6756, "MEAN_ANOMALY": 36.1575, "EPHEMERIS_TYPE": 0, "CLASSIFICATION_TYPE": "U", "NORAD_CAT_ID": 66587, "ELEMENT_SET_NO": 999, "REV_AT_EPOCH": 56, "BSTAR": 0.00058948144, "MEAN_MOTION_DOT": 0.0008861, "MEAN_MOTION_DDOT": -1.447425e-06}, "tle": {"line1": "1 66587U 25269B   25352.18178135  .00088610 -14474-5  58948-3 0  9993", "line2": "2 66587  51.3412 168.3764 7516645 229.6756  36.1575  2.04054650   560"}}, "geometry": {"type": "Point", "coordinates": [-179.02367657559927, 16.106794959944594]}}, {"type": "Feature", "properties": {"norad_id": 66588, "name": "STARLINK-36076", "group": "last-30-days", "lat": -3.0453742293354256, "lon": 140.9606280081175, "alt_km": 444.0654630591134, "timestamp": "2025-12-21T03:56:49.614248+00:00", "meta": {"OBJECT_NAME": "STARLINK-36076", "OBJECT_ID": "2025-270A", "EPOCH": "2025-12-20T18:37:52.440960", "MEAN_MOTION": 15.40705129, "ECCENTRICITY": 0.0002289, "INCLINATION": 42.9999, "RA_OF_ASC_NODE": 146.471, "ARG_OF_PERICENTER": 264.7414, "MEAN_ANOMALY": 95.3181, "EPHEMERIS_TYPE": 0, "CLASSIFICATION_TYPE": "U", "NORAD_CAT_ID": 66588, "ELEMENT_SET_NO": 999, "REV_AT_EPOCH": 558, "BSTAR": 0.00080389, "MEAN_MOTION_DOT": 0.00033431, "MEAN_MOTION_DDOT": 0}, "tle": {"line1": "1 66588U 25270A   25354.77630140  .00033431  00000+0  80389-3 0  9990", "line2": "2 66588  42.9999 146.4710 0002289 264.7414  95.3181 15.40705129  5588"}}, "geometry": {"type": "Point", "coordinates": [140.9606280081175, -3.0453742293354256]}}, {"type": "Feature", "properties": {"norad_id": 66589, "name": "STARLINK-35447", "group": "last-30-days", "lat": 42.76743883500113, "lon": -119.03461867537777, "alt_km": 438.2214352898545, "timestamp": "2025-12-21T03:56:49.614257+00:00", "meta": {"OBJECT_NAME": "STARLINK-35447", "OBJECT_ID": "2025-270B", "EPOCH": "2025-12-20T19:45:25.299072", "MEAN_MOTION": 15.40706696, "ECCENTRICITY": 0.0001514, "INCLINATION": 42.9998, "RA_OF_ASC_NODE": 145.9595, "ARG_OF_PERICENTER": 276.6012, "MEAN_ANOMALY": 83.4672, "EPHEMERIS_TYPE": 0, "CLASSIFICATION_TYPE": "U", "NORAD_CAT_ID": 66589, "ELEMENT_SET_NO": 999, "REV_AT_EPOCH": 570, "BSTAR": 0.00049925, "MEAN_MOTION_DOT": 0.00020612, "MEAN_MOTION_DDOT": 0}, "tle": {"line1": "1 66589U 25270B   25354.82320948  .00020612  00000+0  49925-3 0  9997", "line2": "2 66589  42.9998 145.9595 0001514 276.6012  83.4672 15.40706696  5706"}}, "geometry": {"type": "Point", "coordinates": [-119.03461867537777, 42.76743883500113]}}, {"type": "Feature", "properties": {"norad_id": 66590, "name": "STARLINK-35429", "group": "last-30-days", "lat": -1.5106996378014923, "lon": -34.59349362597404, "alt_km": 444.2842767557386, "timestamp": "2025-12-21T03:56:49.614267+00:00", "meta": {"OBJECT_NAME": "STARLINK-35429", "OBJECT_ID": "2025-270C", "EPOCH": "2025-12-20T20:00:01.999008", "MEAN_MOTION": 15.40663456, "ECCENTRICITY": 0.0001722, "INCLINATION": 43.0004, "RA_OF_ASC_NODE": 145.6932, "ARG_OF_PERICENTER": 285.2303, "MEAN_ANOMALY": 218.2616, "EPHEMERIS_TYPE": 0, "CLASSIFICATION_TYPE": "U", "NORAD_CAT_ID": 66590, "ELEMENT_SET_NO": 999, "REV_AT_EPOCH": 580, "BSTAR": 0.001762, "MEAN_MOTION_DOT": 0.00073925, "MEAN_MOTION_DDOT": 0}, "tle": {"line1": "1 66590U 25270C   25354.83335647  .00073925  00000+0  17620-2 0  9993", "line2": "2 66590  43.0004 145.6932 0001722 285.2303 218.2616 15.40663456  5803"}}, "geometry": {"type": "Point", "coordinates": [-34.59349362597404, -1.5106996378014923]}}, {"type": "Feature", "properties": {"norad_id": 66591, "name": "STARLINK-36058", "group": "last-30-days", "lat": -42.973964285267535, "lon": 52.442400026023996, "alt_km": 446.62236586386007, "timestamp": "2025-12-21T03:56:49.614276+00:00", "meta": {"OBJECT_NAME": "STARLINK-36058", "OBJECT_ID": "2025-270D", "EPOCH": "2025-12-20T20:00:01.999008", "MEAN_MOTION": 15.40591838, "ECCENTRICITY": 0.000163, "INCLINATION": 42.9998, "RA_OF_ASC_NODE": 145.4815, "ARG_OF_PERICENTER": 299.2461, "MEAN_ANOMALY": 291.3557, "EPHEMERIS_TYPE": 0, "CLASSIFICATION_TYPE": "U", "NORAD_CAT_ID": 66591, "ELEMENT_SET_NO": 999, "REV_AT_EPOCH": 570, "BSTAR": 0.0022191, "MEAN_MOTION_DOT": 0.00093197, "MEAN_MOTION_DDOT": 0}, "tle": {"line1": "1 66591U 25270D   25354.83335647  .00093197  00000+0  22191-2 0  9996", "line2": "2 66591  42.9998 145.4815 0001630 299.2461 291.3557 15.40591838  5709"}}, "geometry": {"type": "Point", "coordinates": [52.442400026023996, -42.973964285267535]}}, {"type": "Feature", "properties": {"norad_id": 66592, "name": "STARLINK-36066", "group": "last-30-days", "lat": 29.020703984660553, "lon": -179.35312977763897, "alt_km": 440.21550219104665, "timestamp": "2025-12-21T03:56:49.614285+00:00", "meta": {"OBJECT_NAME": "STARLINK-36066", "OBJECT_ID": "2025-270E", "EPOCH": "2025-12-20T19:58:19.507872", "MEAN_MOTION": 15.40756255, "ECCENTRICITY": 0.0002042, "INCLINATION": 43.0017, "RA_OF_ASC_NODE": 146.0271, "ARG_OF_PERICENTER": 265.6058, "MEAN_ANOMALY": 94.4565, "EPHEMERIS_TYPE": 0, "CLASSIFICATION_TYPE": "U", "NORAD_CAT_ID": 66592, "ELEMENT_SET_NO": 999, "REV_AT_EPOCH": 549, "BSTAR": 0.00093716, "MEAN_MOTION_DOT": 0.00039119, "MEAN_MOTION_DDOT": 0}, "tle": {"line1": "1 66592U 25270E   25354.83217023  .00039119  00000+0  93716-3 0  9990", "line2": "2 66592  43.0017 146.0271 0002042 265.6058  94.4565 15.40756255  5497"}}, "geometry": {"type": "Point", "coordinates": [-179.35312977763897, 29.020703984660553]}}, {"type": "Feature", "properties": {"norad_id": 66593, "name": "STARLINK-36031", "group": "last-30-days", "lat": 30.166473612566552, "lon": -74.6906401937797, "alt_km": 439.5069959946295, "timestamp": "2025-12-21T03:56:49.614295+00:00", "meta": {"OBJECT_NAME": "STARLINK-36031", "OBJECT_ID": "2025-270F", "EPOCH": "2025-12-20T18:02:23.647776", "MEAN_MOTION": 15.40728238, "ECCENTRICITY": 9.43e-05, "INCLINATION": 42.999, "RA_OF_ASC_NODE": 146.28, "ARG_OF_PERICENTER": 262.0878, "MEAN_ANOMALY": 97.9871, "EPHEMERIS_TYPE": 0, "CLASSIFICATION_TYPE": "U", "NORAD_CAT_ID": 66593, "ELEMENT_SET_NO": 999, "REV_AT_EPOCH": 558, "BSTAR": 0.00086484, "MEAN_MOTION_DOT": 0.00036027, "MEAN_MOTION_DDOT": 0}, "tle": {"line1": "1 66593U 25270F   25354.75166259  .00036027  00000+0  86484-3 0  9995", "line2": "2 66593  42.9990 146.2800 0000943 262.0878  97.9871 15.40728238  5583"}}, "geometry": {"type": "Point", "coordinates": [-74.6906401937797, 30.166473612566552]}}]}